QIANFAN-97              
1 66039U 25233G   25307.88205218  .00000686  00000+0  28022-3 0  9996
2 66039  88.9950  66.5036 0015507 157.2996 202.8886 14.26160245  2500
QIANFAN-98              
1 66040U 25233H   25307.88181808  .00000680  00000+0  27773-3 0  9992
2 66040  88.9950  66.5037 0015142 156.0360 204.1541 14.26181701  2503
QIANFAN-99              
1 66041U 25233J   25307.88169809  .00000687  00000+0  28050-3 0  9996
2 66041  88.9949  66.5035 0015283 155.1483 205.0450 14.26197184  2503
QIANFAN-100             
1 66042U 25233K   25307.88163471  .00000676  00000+0  27594-3 0  9996
2 66042  88.9950  66.5036 0015734 156.8462 203.3444 14.26212772  2508
QIANFAN-101             
1 66043U 25233L   25307.87949369  .00000455  00000+0  18215-3 0  9999
2 66043  88.9950  66.5032 0015666 155.0925 205.1028 14.26634100  2505
QIANFAN-102             
1 66044U 25233M   25307.88153223  .00000698  00000+0  28492-3 0  9994
2 66044  88.9949  66.5035 0016102 156.9453 203.2467 14.26216926  2507
QIANFAN-103             
1 66045U 25233N   25307.95141786  .00000697  00000+0  28454-3 0  9991
2 66045  88.9950  66.4956 0015500 155.4894 204.7040 14.26246240  2511
QIANFAN-104             
1 66046U 25233P   25307.88105708  .00000705  00000+0  28788-3 0  9998
2 66046  88.9950  66.5036 0015472 157.9756 202.2106 14.26266904  2508
